#dP2018  8  1  0  0  0.00000000      96 __u+U ITR00 FIT  IAC
## 2012 259200.00000000   900.00000000 58331 0.0000000000000
+   87   C01C02C03C04C05C06C07C08C09C10C11C12C13C14E01E02E03
+        E04E05E07E08E09E11E12E14E18E19E24E26E30G01G02G03G04
+        G05G06G07G08G09G10G11G12G13G14G15G16G17G18G19G20G21
+        G22G23G24G25G26G27G28G29G30G31G32J01J02R01R02R03R04
+        R05R07R08R09R10R11R13R14R15R16R17R18R19R20R21R22R23
+        R24R26  0  0  0  0  0  0  0  0  0  0  0  0  0  0  0
++         0  0  0  0  0  0  0  0  0  0  0  0  0  0  0  0  0
++         0  0  0  0  0  0  0  0  0  0  0  0  0  0  0  0  0
++         0  0  0  0  0  0  0  0  0  0  0  0  0  0  0  0  0
++         0  0  0  0  0  0  0  0  0  0  0  0  0  0  0  0  0
++         0  0  0  0  0  0  0  0  0  0  0  0  0  0  0  0  0
++         0  0  0  0  0  0  0  0  0  0  0  0  0  0  0  0  0
%c M  cc GPS ccc cccc cccc cccc cccc ccccc ccccc ccccc ccccc
%c cc cc ccc ccc cccc cccc cccc cccc ccccc ccccc ccccc ccccc
%f  0.0000000  0.000000000  0.00000000000  0.000000000000000
%f  0.0000000  0.000000000  0.00000000000  0.000000000000000
%i    0    0    0    0      0      0      0      0         0
%i    0    0    0    0      0      0      0      0         0
/*                                                          
/*   RSA / INFORMATION & ANALYSIS CENTER (IAC) OF MCC       
/*   ULTRA-RAPID DETERMINATION                              
/* PCV:IGS14_2000 OL/AL:FES2004  NONE     YN ORB:CoN CLK:CoN
*  2018 08 01  2 45  0.00000000
PC01 -32245.357905  27122.052983    894.029943    412.556845
PC02   4472.661237  41930.820904   -165.626917    -71.000437
PC03 -14718.086347  39504.441400    998.939491 999999.999999
PC04 -39618.047036  14413.438096    716.631079   -249.818841
PC05  21888.027075  36028.458783   -286.287330    261.848215
PC06 -13364.240262  21189.072176 -33672.090293    132.128219
PC07 -23638.784379  33314.007516   9523.270415     43.138706
PC08  -7279.715136  34522.491313  23328.549841    463.945410
PC09   1351.521791  25844.003596 -33044.450207     99.952065
PC10 -10863.281902  34285.186395  21816.542388   -430.822545
PC11  21404.304913   9845.711689 -14965.297646   -615.827078
PC12  16762.171929  22196.160480   2870.810456    539.641217
PC13    896.829896  40501.191880  12149.436996   -204.790042
PC14  26216.014340   1402.474770  -9327.180614    331.827310
PE01  -4910.201573  23497.685659  17310.844555   -403.006248
PE02   4893.586452 -23495.320556 -17327.278072     21.718678
PE03  -4474.650939 -17656.246832  23339.467235    -60.723504
PE04  23601.580737  13020.999442 -12218.793236    -86.951841
PE05  17335.904505 -11954.677275  20811.521735    219.067853
PE07 -28948.677592   -738.520744  -6097.706629    -12.110122
PE08 -23721.040803 -12740.959523  12292.606819   6532.626309
PE09  28965.339527    503.527212   6128.443281   6718.817412
PE11  17585.997064   1440.886510 -23772.900861   3145.085411
PE12  16600.820049  21376.393732 -11967.753856   4727.484332
PE14 -18862.012436   1718.548310  15434.489401   6542.465160
PE18  17289.703009 -11887.836357 -24248.753640   6016.842471
PE19   2404.751839  17400.226905 -23814.064314    -13.603099
PE24  22238.737554  -8487.342122  17583.664069   6570.985963
PE26  -8499.436961  18648.842925  21355.465903   5645.149216
PE30 -12285.899717 -10630.730059 -24748.831713   5632.367050
PG01 -13188.134979  14034.141031  17993.176253    -71.615261
PG02  14191.366183   9364.468974 -19900.231884     41.398417
PG03 -22599.728072  13589.687481  -2879.790150    114.487972
PG04  -8319.973046 -12551.586387 -22145.610656     83.946760
PG05  21875.316069    813.301898 -15298.371784     -3.800469
PG06   6820.570074  22767.437856 -11803.135331    381.277353
PG07  -5839.406302  24983.837451  -5608.693111    149.393054
PG08 -22218.405551  -2366.686607  14518.372756   -110.110041
PG09  -5359.608103  14712.308939 -21480.098843    512.404981
PG10  -2116.355823 -15642.229799  21381.542771    187.992448
PG11 -13472.532157   9376.336131  20339.815155   -727.264798
PG12  24706.852902  -9274.625570   1712.391310    317.169280
PG13  22461.626074  11097.183839   8726.043055    -91.658716
PG14 -18164.937703 -18829.754124   5397.219389    -97.652988
PG15  21251.202465  -1981.368204  15824.478121   -349.543251
PG16 -20978.483939  -3221.661066 -16385.121212     15.480504
PG17  11235.479191  19858.159516  14085.972867    -72.222369
PG18 -15020.173889   4585.971266  20928.069713     40.401959
PG19  17969.807587  18733.956172   4928.371401   -415.636358
PG20   7334.912953 -19403.830896  16416.882262    513.383550
PG21   1254.806325 -26449.508827  -1475.079781   -359.286469
PG22 -24298.208686   9232.417661   5641.894886   -475.438620
PG23 -16017.650368   6885.430338 -19850.052461   -213.581091
PG24  14479.450739 -10057.054653  19662.318290    -53.362411
PG25  16860.121147 -17037.870183 -11364.696477   -624.772499
PG26 -12930.307446  -9953.988983 -20989.248331    -65.844209
PG27 -23530.965815 -11803.100304   4378.479323    357.285792
PG28  -1965.927744  16187.066569  21598.077317    735.200719
PG29   7479.995541 -12747.041947 -22095.125883    404.389867
PG30    532.445655  26062.600429   4600.394014     43.453445
PG31  -7615.394929 -21273.785043 -13578.917295    103.806882
PG32 -12426.864098 -19319.700316  13454.704384   -462.542169
PJ01 -33524.339999  21481.424742  -9108.647272   -158.655209
PJ02      0.000000      0.000000      0.000000 999999.999999
PR01  16417.317417   8203.284395 -17717.137630     29.881841
PR02  25479.003172   -310.155975    315.086987    322.491195
PR03  17767.966630  -8009.696643  16475.865169    139.260565
PR04   -799.789721 -10971.921467  23034.161494    270.660711
PR05 -18477.739026  -7300.301025  15988.749009    -49.201355
PR07 -17509.016932   8085.185489 -16676.174819    -43.748987
PR08     10.101584  10955.567567 -22979.885890     22.015525
PR09 -14948.300717   7127.522365 -19359.276161     20.962482
PR10 -14733.439019  19947.752917  -5789.694783     28.901576
PR11  -5800.120794  21657.998881  12129.983911    -36.333822
PR13  14596.953140  -7331.864335  19582.088106    -13.088261
PR14  14740.510751 -19990.255675   5875.665057     29.602531
PR15   8630.548720 -22460.936998  -8319.311751    -13.983504
PR16  -5943.123985 -11126.095601 -22172.177068     98.249661
PR17   6231.425000 -10052.016404 -22593.909759    152.436022
PR18  -5481.208008 -21277.465226 -13001.614075    205.079351
PR19 -13748.367796 -21113.053241   3972.751607    -57.337225
PR20 -14344.150569  -7575.845784  19701.942830   -347.129597
PR21  -5870.589400  10417.463501  22528.778648      4.338403
PR22   6724.545628  21847.651526  11184.318441    -57.591321
PR23  15123.554245  18913.202409  -8029.449065    169.222540
PR24  14200.953809   6202.308562 -20288.691167   -169.566799
PR26 -14772.927028  -8225.769361  19094.240907     38.173015
EOF
